{"type": "FeatureCollection", "features": [ {"type": "Feature", "properties": {"norad_id": 40118, "name": "GAOFEN-2", "group": "resource", "lat": -20.71790723096868, "lon": -123.71289829079807, "alt_km": 636.1102112425997, "timestamp": "2025-12-26T03:50:11.744865+00:00", "meta": {"OBJECT_NAME": "GAOFEN-2", "OBJECT_ID": "2014-049A", "EPOCH": "2025-12-25T20:26:43.931904", "MEAN_MOTION": 14.8062887, "ECCENTRICITY": 0.0008707, "INCLINATION": 98.0362, "RA_OF_ASC_NODE": 59.0418, "ARG_OF_PERICENTER": 76.7762, "MEAN_ANOMALY": 283.442, "EPHEMERIS_TYPE": 0, "CLASSIFICATION_TYPE": "U", "NORAD_CAT_ID": 40118, "ELEMENT_SET_NO": 999, "REV_AT_EPOCH": 61358, "BSTAR": 8.09e-05, "MEAN_MOTION_DOT": 5.68e-06, "MEAN_MOTION_DDOT": 0}, "tle": {"line1": "1 40118U 14049A   25359.85189736  .00000568  00000+0  80900-4 0  9992", "line2": "2 40118  98.0362  59.0418 0008707  76.7762 283.4420 14.80628870613588"}}, "geometry": {"type": "Point", "coordinates": [-123.71289829079807, -20.71790723096868]}}, {"type": "Feature", "properties": {"norad_id": 40143, "name": "YAOGAN-21", "group": "resource", "lat": 80.41602945431057, "lon": -5.349736140872258, "alt_km": 486.64049422172775, "timestamp": "2025-12-26T03:50:11.744876+00:00", "meta": {"OBJECT_NAME": "YAOGAN-21", "OBJECT_ID": "2014-053A", "EPOCH": "2025-12-25T21:10:02.171712", "MEAN_MOTION": 15.23802148, "ECCENTRICITY": 0.000847, "INCLINATION": 97.1735, "RA_OF_ASC_NODE": 42.6223, "ARG_OF_PERICENTER": 358.0469, "MEAN_ANOMALY": 2.0734, "EPHEMERIS_TYPE": 0, "CLASSIFICATION_TYPE": "U", "NORAD_CAT_ID": 40143, "ELEMENT_SET_NO": 999, "REV_AT_EPOCH": 62854, "BSTAR": 0.00016163, "MEAN_MOTION_DOT": 3.827e-05, "MEAN_MOTION_DDOT": 0}, "tle": {"line1": "1 40143U 14053A   25359.88196958  .00003827  00000+0  16163-3 0  9992", "line2": "2 40143  97.1735  42.6223 0008470 358.0469   2.0734 15.23802148628544"}}, "geometry": {"type": "Point", "coordinates": [-5.349736140872258, 80.41602945431057]}}, {"type": "Feature", "properties": {"norad_id": 40275, "name": "YAOGAN-22", "group": "resource", "lat": -42.899058669599405, "lon": 153.92925571052282, "alt_km": 1209.1182055024774, "timestamp": "2025-12-26T03:50:11.744886+00:00", "meta": {"OBJECT_NAME": "YAOGAN-22", "OBJECT_ID": "2014-063A", "EPOCH": "2025-12-25T15:16:57.245952", "MEAN_MOTION": 13.15523272, "ECCENTRICITY": 0.0006094, "INCLINATION": 100.743, "RA_OF_ASC_NODE": 143.2387, "ARG_OF_PERICENTER": 217.4039, "MEAN_ANOMALY": 142.6648, "EPHEMERIS_TYPE": 0, "CLASSIFICATION_TYPE": "U", "NORAD_CAT_ID": 40275, "ELEMENT_SET_NO": 999, "REV_AT_EPOCH": 53699, "BSTAR": 5.775e-05, "MEAN_MOTION_DOT": -2.5e-07, "MEAN_MOTION_DDOT": 0}, "tle": {"line1": "1 40275U 14063A   25359.63677368 -.00000025  00000+0  57750-4 0  9997", "line2": "2 40275 100.7430 143.2387 0006094 217.4039 142.6648 13.15523272536992"}}, "geometry": {"type": "Point", "coordinates": [153.92925571052282, -42.899058669599405]}}, {"type": "Feature", "properties": {"norad_id": 40298, "name": "ASNARO", "group": "resource", "lat": -65.78622397187978, "lon": 92.48886011787937, "alt_km": 517.3116714603184, "timestamp": "2025-12-26T03:50:11.744896+00:00", "meta": {"OBJECT_NAME": "ASNARO", "OBJECT_ID": "2014-070A", "EPOCH": "2025-12-25T20:13:46.335360", "MEAN_MOTION": 15.19756142, "ECCENTRICITY": 0.0005714, "INCLINATION": 97.3628, "RA_OF_ASC_NODE": 75.4691, "ARG_OF_PERICENTER": 86.7324, "MEAN_ANOMALY": 273.4565, "EPHEMERIS_TYPE": 0, "CLASSIFICATION_TYPE": "U", "NORAD_CAT_ID": 40298, "ELEMENT_SET_NO": 999, "REV_AT_EPOCH": 61768, "BSTAR": 0.00035528, "MEAN_MOTION_DOT": 7.536e-05, "MEAN_MOTION_DDOT": 0}, "tle": {"line1": "1 40298U 14070A   25359.84289740  .00007536  00000+0  35528-3 0  9997", "line2": "2 40298  97.3628  75.4691 0005714  86.7324 273.4565 15.19756142617680"}}, "geometry": {"type": "Point", "coordinates": [92.48886011787937, -65.78622397187978]}}, {"type": "Feature", "properties": {"norad_id": 40310, "name": "YAOGAN-24", "group": "resource", "lat": -29.074077229043993, "lon": 135.8803791971303, "alt_km": 653.6641290943562, "timestamp": "2025-12-26T03:50:11.744907+00:00", "meta": {"OBJECT_NAME": "YAOGAN-24", "OBJECT_ID": "2014-072A", "EPOCH": "2025-12-25T21:27:45.176832", "MEAN_MOTION": 14.76204827, "ECCENTRICITY": 0.0015217, "INCLINATION": 98.1233, "RA_OF_ASC_NODE": 131.0585, "ARG_OF_PERICENTER": 98.6405, "MEAN_ANOMALY": 261.6529, "EPHEMERIS_TYPE": 0, "CLASSIFICATION_TYPE": "U", "NORAD_CAT_ID": 40310, "ELEMENT_SET_NO": 999, "REV_AT_EPOCH": 59815, "BSTAR": 0.00019962, "MEAN_MOTION_DOT": 1.331e-05, "MEAN_MOTION_DDOT": 0}, "tle": {"line1": "1 40310U 14072A   25359.89427288  .00001331  00000+0  19962-3 0  9991", "line2": "2 40310  98.1233 131.0585 0015217  98.6405 261.6529 14.76204827598157"}}, "geometry": {"type": "Point", "coordinates": [135.8803791971303, -29.074077229043993]}}, {"type": "Feature", "properties": {"norad_id": 40336, "name": "CBERS 4", "group": "resource", "lat": -81.64560524056576, "lon": 151.7578816100815, "alt_km": 782.001584100165, "timestamp": "2025-12-26T03:50:11.744917+00:00", "meta": {"OBJECT_NAME": "CBERS 4", "OBJECT_ID": "2014-079A", "EPOCH": "2025-12-25T19:53:38.546304", "MEAN_MOTION": 14.35522621, "ECCENTRICITY": 0.0001872, "INCLINATION": 98.3286, "RA_OF_ASC_NODE": 57.3965, "ARG_OF_PERICENTER": 97.6939, "MEAN_ANOMALY": 262.446, "EPHEMERIS_TYPE": 0, "CLASSIFICATION_TYPE": "U", "NORAD_CAT_ID": 40336, "ELEMENT_SET_NO": 999, "REV_AT_EPOCH": 57908, "BSTAR": 6.5566e-05, "MEAN_MOTION_DOT": 1.47e-06, "MEAN_MOTION_DDOT": 0}, "tle": {"line1": "1 40336U 14079A   25359.82891836  .00000147  00000+0  65566-4 0  9999", "line2": "2 40336  98.3286  57.3965 0001872  97.6939 262.4460 14.35522621579084"}}, "geometry": {"type": "Point", "coordinates": [151.7578816100815, -81.64560524056576]}}, {"type": "Feature", "properties": {"norad_id": 40362, "name": "YAOGAN-26", "group": "resource", "lat": -19.73438395370001, "lon": 177.8085250161803, "alt_km": 454.5061640399572, "timestamp": "2025-12-26T03:50:11.744928+00:00", "meta": {"OBJECT_NAME": "YAOGAN-26", "OBJECT_ID": "2014-088A", "EPOCH": "2025-12-25T20:43:57.719136", "MEAN_MOTION": 15.39764141, "ECCENTRICITY": 0.0004262, "INCLINATION": 97.0647, "RA_OF_ASC_NODE": 0.0727, "ARG_OF_PERICENTER": 348.5494, "MEAN_ANOMALY": 11.5655, "EPHEMERIS_TYPE": 0, "CLASSIFICATION_TYPE": "U", "NORAD_CAT_ID": 40362, "ELEMENT_SET_NO": 999, "REV_AT_EPOCH": 61096, "BSTAR": 0.00065428, "MEAN_MOTION_DOT": 0.00025885, "MEAN_MOTION_DDOT": 0}, "tle": {"line1": "1 40362U 14088A   25359.86386249  .00025885  00000+0  65428-3 0  9991", "line2": "2 40362  97.0647   0.0727 0004262 348.5494  11.5655 15.39764141610963"}}, "geometry": {"type": "Point", "coordinates": [177.8085250161803, -19.73438395370001]}}, {"type": "Feature", "properties": {"norad_id": 40376, "name": "SMAP", "group": "resource", "lat": 14.555481213698881, "lon": 2.563417081686153, "alt_km": 683.0497753131376, "timestamp": "2025-12-26T03:50:11.744939+00:00", "meta": {"OBJECT_NAME": "SMAP", "OBJECT_ID": "2015-003A", "EPOCH": "2025-12-25T19:33:51.831072", "MEAN_MOTION": 14.63360823, "ECCENTRICITY": 0.0001237, "INCLINATION": 98.1291, "RA_OF_ASC_NODE": 4.3506, "ARG_OF_PERICENTER": 92.2077, "MEAN_ANOMALY": 267.9267, "EPHEMERIS_TYPE": 0, "CLASSIFICATION_TYPE": "U", "NORAD_CAT_ID": 40376, "ELEMENT_SET_NO": 999, "REV_AT_EPOCH": 58226, "BSTAR": 0.00011863, "MEAN_MOTION_DOT": 5.66e-06, "MEAN_MOTION_DDOT": 0}, "tle": {"line1": "1 40376U 15003A   25359.81518323  .00000566  00000+0  11863-3 0  9992", "line2": "2 40376  98.1291   4.3506 0001237  92.2077 267.9267 14.63360823582268"}}, "geometry": {"type": "Point", "coordinates": [2.563417081686153, 14.555481213698881]}}, {"type": "Feature", "properties": {"norad_id": 40536, "name": "KOMPSAT-3A", "group": "resource", "lat": 5.306433524659868, "lon": -25.46524003779961, "alt_km": 435.5482922587089, "timestamp": "2025-12-26T03:50:11.744949+00:00", "meta": {"OBJECT_NAME": "KOMPSAT-3A", "OBJECT_ID": "2015-014A", "EPOCH": "2025-12-25T21:35:36.856896", "MEAN_MOTION": 15.44428738, "ECCENTRICITY": 0.0005626, "INCLINATION": 97.6808, "RA_OF_ASC_NODE": 334.9782, "ARG_OF_PERICENTER": 98.3462, "MEAN_ANOMALY": 261.8423, "EPHEMERIS_TYPE": 0, "CLASSIFICATION_TYPE": "U", "NORAD_CAT_ID": 40536, "ELEMENT_SET_NO": 999, "REV_AT_EPOCH": 59498, "BSTAR": 0.00045401, "MEAN_MOTION_DOT": 0.00020941, "MEAN_MOTION_DDOT": 0}, "tle": {"line1": "1 40536U 15014A   25359.89973214  .00020941  00000+0  45401-3 0  9998", "line2": "2 40536  97.6808 334.9782 0005626  98.3462 261.8423 15.44428738594982"}}, "geometry": {"type": "Point", "coordinates": [-25.46524003779961, 5.306433524659868]}}, {"type": "Feature", "properties": {"norad_id": 40697, "name": "SENTINEL-2A", "group": "resource", "lat": 64.90466154832386, "lon": -88.70651494195113, "alt_km": 781.9923598414316, "timestamp": "2025-12-26T03:50:11.744959+00:00", "meta": {"OBJECT_NAME": "SENTINEL-2A", "OBJECT_ID": "2015-028A", "EPOCH": "2025-12-25T20:35:38.968224", "MEAN_MOTION": 14.30810126, "ECCENTRICITY": 0.0001052, "INCLINATION": 98.5726, "RA_OF_ASC_NODE": 72.2069, "ARG_OF_PERICENTER": 87.9478, "MEAN_ANOMALY": 272.1825, "EPHEMERIS_TYPE": 0, "CLASSIFICATION_TYPE": "U", "NORAD_CAT_ID": 40697, "ELEMENT_SET_NO": 999, "REV_AT_EPOCH": 54894, "BSTAR": 1.6363e-05, "MEAN_MOTION_DOT": -1e-08, "MEAN_MOTION_DDOT": 0}, "tle": {"line1": "1 40697U 15028A   25359.85808991 -.00000001  00000+0  16363-4 0  9998", "line2": "2 40697  98.5726  72.2069 0001052  87.9478 272.1825 14.30810126548945"}}, "geometry": {"type": "Point", "coordinates": [-88.70651494195113, 64.90466154832386]}}]}